[{"OBJECT_NAME":"QIANFAN-101","OBJECT_ID":"2025-233L","EPOCH":"2026-03-09T23:40:08.087808","MEAN_MOTION":14.26740528,"ECCENTRICITY":0.00171671,"INCLINATION":88.9944,"RA_OF_ASC_NODE":51.9499,"ARG_OF_PERICENTER":106.3437,"MEAN_ANOMALY":253.9646,"EPHEMERIS_TYPE":0,"CLASSIFICATION_TYPE":"U","NORAD_CAT_ID":66043,"ELEMENT_SET_NO":999,"REV_AT_EPOCH":2048,"BSTAR":0.00028904417,"MEAN_MOTION_DOT":7.15e-6,"MEAN_MOTION_DDOT":0},{"OBJECT_NAME":"COSMOS 1867 COOLANT","OBJECT_ID":"1987-060K","EPOCH":"2026-03-09T00:31:34.703616","MEAN_MOTION":14.33481228,"ECCENTRICITY":0.00154371,"INCLINATION":65.009,"RA_OF_ASC_NODE":298.2205,"ARG_OF_PERICENTER":283.3554,"MEAN_ANOMALY":76.581,"EPHEMERIS_TYPE":0,"CLASSIFICATION_TYPE":"U","NORAD_CAT_ID":39642,"ELEMENT_SET_NO":999,"REV_AT_EPOCH":62319,"BSTAR":0.00015244118,"MEAN_MOTION_DOT":3.22e-6,"MEAN_MOTION_DDOT":0}]
